[{"OBJECT_NAME":"HULIANWANG DIGUI-01","OBJECT_ID":"2024-240A","EPOCH":"2026-03-04T03:17:52.045152","MEAN_MOTION":13.24420448,"ECCENTRICITY":0.0001938,"INCLINATION":86.5028,"RA_OF_ASC_NODE":18.6532,"ARG_OF_PERICENTER":86.2337,"MEAN_ANOMALY":273.9018,"EPHEMERIS_TYPE":0,"CLASSIFICATION_TYPE":"U","NORAD_CAT_ID":62323,"ELEMENT_SET_NO":999,"REV_AT_EPOCH":5873,"BSTAR":0.00011146,"MEAN_MOTION_DOT":6.2e-7,"MEAN_MOTION_DDOT":0},{"OBJECT_NAME":"HULIANWANG DIGUI-02","OBJECT_ID":"2024-240B","EPOCH":"2026-03-04T03:28:36.812928","MEAN_MOTION":13.24422077,"ECCENTRICITY":0.000186,"INCLINATION":86.5057,"RA_OF_ASC_NODE":18.7803,"ARG_OF_PERICENTER":89.9129,"MEAN_ANOMALY":270.2218,"EPHEMERIS_TYPE":0,"CLASSIFICATION_TYPE":"U","NORAD_CAT_ID":62324,"ELEMENT_SET_NO":999,"REV_AT_EPOCH":5874,"BSTAR":9.5559e-5,"MEAN_MOTION_DOT":5.6e-7,"MEAN_MOTION_DDOT":0},{"OBJECT_NAME":"HULIANWANG DIGUI-03","OBJECT_ID":"2024-240C","EPOCH":"2026-03-04T03:06:49.351968","MEAN_MOTION":13.24422033,"ECCENTRICITY":0.0002019,"INCLINATION":86.501,"RA_OF_ASC_NODE":18.5755,"ARG_OF_PERICENTER":85.1314,"MEAN_ANOMALY":275.005,"EPHEMERIS_TYPE":0,"CLASSIFICATION_TYPE":"U","NORAD_CAT_ID":62325,"ELEMENT_SET_NO":999,"REV_AT_EPOCH":5873,"BSTAR":0.00013462,"MEAN_MOTION_DOT":7.2e-7,"MEAN_MOTION_DDOT":0},{"OBJECT_NAME":"HULIANWANG DIGUI-04","OBJECT_ID":"2024-240D","EPOCH":"2026-03-04T02:55:59.462400","MEAN_MOTION":13.24421678,"ECCENTRICITY":0.0002054,"INCLINATION":86.502,"RA_OF_ASC_NODE":18.6096,"ARG_OF_PERICENTER":85.7423,"MEAN_ANOMALY":274.3946,"EPHEMERIS_TYPE":0,"CLASSIFICATION_TYPE":"U","NORAD_CAT_ID":62326,"ELEMENT_SET_NO":999,"REV_AT_EPOCH":5873,"BSTAR":0.00011312,"MEAN_MOTION_DOT":6.3e-7,"MEAN_MOTION_DDOT":0},{"OBJECT_NAME":"HULIANWANG DIGUI-05","OBJECT_ID":"2024-240E","EPOCH":"2026-03-04T02:45:10.841184","MEAN_MOTION":13.24420921,"ECCENTRICITY":0.0002081,"INCLINATION":86.5071,"RA_OF_ASC_NODE":18.8311,"ARG_OF_PERICENTER":84.9195,"MEAN_ANOMALY":275.2176,"EPHEMERIS_TYPE":0,"CLASSIFICATION_TYPE":"U","NORAD_CAT_ID":62327,"ELEMENT_SET_NO":999,"REV_AT_EPOCH":5873,"BSTAR":0.00010152,"MEAN_MOTION_DOT":5.8e-7,"MEAN_MOTION_DDOT":0},{"OBJECT_NAME":"HULIANWANG DIGUI-06","OBJECT_ID":"2024-240F","EPOCH":"2026-03-04T04:12:04.183488","MEAN_MOTION":13.24422852,"ECCENTRICITY":0.0002026,"INCLINATION":86.501,"RA_OF_ASC_NODE":18.5302,"ARG_OF_PERICENTER":89.3445,"MEAN_ANOMALY":270.7921,"EPHEMERIS_TYPE":0,"CLASSIFICATION_TYPE":"U","NORAD_CAT_ID":62328,"ELEMENT_SET_NO":999,"REV_AT_EPOCH":5874,"BSTAR":5.2102e-5,"MEAN_MOTION_DOT":3.7e-7,"MEAN_MOTION_DDOT":0},{"OBJECT_NAME":"HULIANWANG DIGUI-07","OBJECT_ID":"2024-240G","EPOCH":"2026-03-04T04:01:19.685280","MEAN_MOTION":13.24421005,"ECCENTRICITY":0.0002008,"INCLINATION":86.4981,"RA_OF_ASC_NODE":18.4012,"ARG_OF_PERICENTER":87.6166,"MEAN_ANOMALY":272.5197,"EPHEMERIS_TYPE":0,"CLASSIFICATION_TYPE":"U","NORAD_CAT_ID":62329,"ELEMENT_SET_NO":999,"REV_AT_EPOCH":5874,"BSTAR":5.3688e-5,"MEAN_MOTION_DOT":3.8e-7,"MEAN_MOTION_DDOT":0},{"OBJECT_NAME":"HULIANWANG DIGUI-08","OBJECT_ID":"2024-240H","EPOCH":"2026-03-04T02:34:19.540704","MEAN_MOTION":13.24420814,"ECCENTRICITY":0.0002121,"INCLINATION":86.5063,"RA_OF_ASC_NODE":18.7911,"ARG_OF_PERICENTER":86.2612,"MEAN_ANOMALY":273.8765,"EPHEMERIS_TYPE":0,"CLASSIFICATION_TYPE":"U","NORAD_CAT_ID":62330,"ELEMENT_SET_NO":999,"REV_AT_EPOCH":5873,"BSTAR":6.679e-5,"MEAN_MOTION_DOT":4.3e-7,"MEAN_MOTION_DDOT":0},{"OBJECT_NAME":"HULIANWANG DIGUI-09","OBJECT_ID":"2024-240J","EPOCH":"2026-03-04T03:50:20.852448","MEAN_MOTION":13.24422274,"ECCENTRICITY":0.0001953,"INCLINATION":86.503,"RA_OF_ASC_NODE":18.6689,"ARG_OF_PERICENTER":89.5766,"MEAN_ANOMALY":270.5592,"EPHEMERIS_TYPE":0,"CLASSIFICATION_TYPE":"U","NORAD_CAT_ID":62331,"ELEMENT_SET_NO":999,"REV_AT_EPOCH":5873,"BSTAR":6.2965e-5,"MEAN_MOTION_DOT":4.2e-7,"MEAN_MOTION_DDOT":0},{"OBJECT_NAME":"HULIANWANG DIGUI-10","OBJECT_ID":"2024-240K","EPOCH":"2026-03-04T03:39:31.576320","MEAN_MOTION":13.24421607,"ECCENTRICITY":0.0001952,"INCLINATION":86.506,"RA_OF_ASC_NODE":18.7936,"ARG_OF_PERICENTER":91.5847,"MEAN_ANOMALY":268.5511,"EPHEMERIS_TYPE":0,"CLASSIFICATION_TYPE":"U","NORAD_CAT_ID":62332,"ELEMENT_SET_NO":999,"REV_AT_EPOCH":5873,"BSTAR":4.3573e-5,"MEAN_MOTION_DOT":3.3e-7,"MEAN_MOTION_DDOT":0},{"OBJECT_NAME":"HULIANWANG DIGUI-11","OBJECT_ID":"2025-030A","EPOCH":"2026-03-04T03:13:36.732288","MEAN_MOTION":13.29337699,"ECCENTRICITY":7.46e-5,"INCLINATION":49.9993,"RA_OF_ASC_NODE":252.6234,"ARG_OF_PERICENTER":164.1645,"MEAN_ANOMALY":195.9251,"EPHEMERIS_TYPE":0,"CLASSIFICATION_TYPE":"U","NORAD_CAT_ID":62971,"ELEMENT_SET_NO":999,"REV_AT_EPOCH":5188,"BSTAR":8.4814e-5,"MEAN_MOTION_DOT":-8.5e-7,"MEAN_MOTION_DDOT":0},{"OBJECT_NAME":"HULIANWANG DIGUI-12","OBJECT_ID":"2025-030B","EPOCH":"2026-03-04T01:37:13.448928","MEAN_MOTION":13.29339869,"ECCENTRICITY":8.74e-5,"INCLINATION":50.0008,"RA_OF_ASC_NODE":252.9824,"ARG_OF_PERICENTER":158.1284,"MEAN_ANOMALY":201.9625,"EPHEMERIS_TYPE":0,"CLASSIFICATION_TYPE":"U","NORAD_CAT_ID":62972,"ELEMENT_SET_NO":999,"REV_AT_EPOCH":5187,"BSTAR":8.2157e-5,"MEAN_MOTION_DOT":-8.6e-7,"MEAN_MOTION_DDOT":0},{"OBJECT_NAME":"HULIANWANG DIGUI-13","OBJECT_ID":"2025-030C","EPOCH":"2026-03-04T03:01:32.238048","MEAN_MOTION":13.29337779,"ECCENTRICITY":7.01e-5,"INCLINATION":50.0012,"RA_OF_ASC_NODE":252.638,"ARG_OF_PERICENTER":149.6599,"MEAN_ANOMALY":210.4313,"EPHEMERIS_TYPE":0,"CLASSIFICATION_TYPE":"U","NORAD_CAT_ID":62973,"ELEMENT_SET_NO":999,"REV_AT_EPOCH":5188,"BSTAR":6.3569e-5,"MEAN_MOTION_DOT":-9.5e-7,"MEAN_MOTION_DDOT":0},{"OBJECT_NAME":"HULIANWANG DIGUI-14","OBJECT_ID":"2025-030D","EPOCH":"2026-03-04T02:25:32.136960","MEAN_MOTION":13.29337667,"ECCENTRICITY":7.95e-5,"INCLINATION":50.0017,"RA_OF_ASC_NODE":252.5259,"ARG_OF_PERICENTER":149.8118,"MEAN_ANOMALY":210.28,"EPHEMERIS_TYPE":0,"CLASSIFICATION_TYPE":"U","NORAD_CAT_ID":62974,"ELEMENT_SET_NO":999,"REV_AT_EPOCH":5188,"BSTAR":0.00011583,"MEAN_MOTION_DOT":-7.0e-7,"MEAN_MOTION_DDOT":0},{"OBJECT_NAME":"HULIANWANG DIGUI-15","OBJECT_ID":"2025-030E","EPOCH":"2026-03-04T02:49:33.560256","MEAN_MOTION":13.29337768,"ECCENTRICITY":6.79e-5,"INCLINATION":50.0013,"RA_OF_ASC_NODE":252.5973,"ARG_OF_PERICENTER":156.7071,"MEAN_ANOMALY":203.3832,"EPHEMERIS_TYPE":0,"CLASSIFICATION_TYPE":"U","NORAD_CAT_ID":62975,"ELEMENT_SET_NO":999,"REV_AT_EPOCH":5188,"BSTAR":8.6405e-5,"MEAN_MOTION_DOT":-8.4e-7,"MEAN_MOTION_DDOT":0},{"OBJECT_NAME":"HULIANWANG DIGUI-16","OBJECT_ID":"2025-030F","EPOCH":"2026-03-04T02:13:26.108256","MEAN_MOTION":13.29338365,"ECCENTRICITY":7.96e-5,"INCLINATION":50.0034,"RA_OF_ASC_NODE":252.5349,"ARG_OF_PERICENTER":147.2291,"MEAN_ANOMALY":212.8631,"EPHEMERIS_TYPE":0,"CLASSIFICATION_TYPE":"U","NORAD_CAT_ID":62976,"ELEMENT_SET_NO":999,"REV_AT_EPOCH":5188,"BSTAR":8.7082e-5,"MEAN_MOTION_DOT":-8.4e-7,"MEAN_MOTION_DDOT":0}]
