HULIANWANG DIGUI-01     
1 62323U 24240A   26063.13740793  .00000062  00000+0  11146-3 0  9992
2 62323  86.5028  18.6532 0001938  86.2337 273.9018 13.24420448 58737
HULIANWANG DIGUI-02     
1 62324U 24240B   26063.14487052  .00000056  00000+0  95559-4 0  9994
2 62324  86.5057  18.7803 0001860  89.9129 270.2218 13.24422077 58748
HULIANWANG DIGUI-03     
1 62325U 24240C   26063.12973787  .00000072  00000+0  13462-3 0  9998
2 62325  86.5010  18.5755 0002019  85.1314 275.0050 13.24422033 58731
HULIANWANG DIGUI-04     
1 62326U 24240D   26063.12221600  .00000063  00000+0  11312-3 0  9991
2 62326  86.5020  18.6096 0002054  85.7423 274.3946 13.24421678 58738
HULIANWANG DIGUI-05     
1 62327U 24240E   26063.11470881  .00000058  00000+0  10152-3 0  9993
2 62327  86.5071  18.8311 0002081  84.9195 275.2176 13.24420921 58739
HULIANWANG DIGUI-06     
1 62328U 24240F   26063.17504842  .00000037  00000+0  52102-4 0  9994
2 62328  86.5010  18.5302 0002026  89.3445 270.7921 13.24422852 58740
HULIANWANG DIGUI-07     
1 62329U 24240G   26063.16758895  .00000038  00000+0  53688-4 0  9994
2 62329  86.4981  18.4012 0002008  87.6166 272.5197 13.24421005 58749
HULIANWANG DIGUI-08     
1 62330U 24240H   26063.10717061  .00000043  00000+0  66790-4 0  9994
2 62330  86.5063  18.7911 0002121  86.2612 273.8765 13.24420814 58732
HULIANWANG DIGUI-09     
1 62331U 24240J   26063.15996357  .00000042  00000+0  62965-4 0  9996
2 62331  86.5030  18.6689 0001953  89.5766 270.5592 13.24422274 58730
HULIANWANG DIGUI-10     
1 62332U 24240K   26063.15244880  .00000033  00000+0  43573-4 0  9998
2 62332  86.5060  18.7936 0001952  91.5847 268.5511 13.24421607 58739
HULIANWANG DIGUI-11     
1 62971U 25030A   26063.13445292 -.00000085  00000+0  84814-4 0  9994
2 62971  49.9993 252.6234 0000746 164.1645 195.9251 13.29337699 51884
HULIANWANG DIGUI-12     
1 62972U 25030B   26063.06751677 -.00000086  00000+0  82157-4 0  9993
2 62972  50.0008 252.9824 0000874 158.1284 201.9625 13.29339869 51870
HULIANWANG DIGUI-13     
1 62973U 25030C   26063.12606757 -.00000095  00000+0  63569-4 0  9995
2 62973  50.0012 252.6380 0000701 149.6599 210.4313 13.29337779 51881
HULIANWANG DIGUI-14     
1 62974U 25030D   26063.10106640 -.00000070  00000+0  11583-3 0  9991
2 62974  50.0017 252.5259 0000795 149.8118 210.2800 13.29337667 51888
HULIANWANG DIGUI-15     
1 62975U 25030E   26063.11774954 -.00000084  00000+0  86405-4 0  9993
2 62975  50.0013 252.5973 0000679 156.7071 203.3832 13.29337768 51884
HULIANWANG DIGUI-16     
1 62976U 25030F   26063.09266329 -.00000084  00000+0  87082-4 0  9995
2 62976  50.0034 252.5349 0000796 147.2291 212.8631 13.29338365 51880
